[{"OBJECT_NAME":"STARLINK-30939","OBJECT_ID":"2023-178V","EPOCH":"2026-03-09T23:17:11.646816","MEAN_MOTION":15.3017535,"ECCENTRICITY":9.023e-5,"INCLINATION":53.1615,"RA_OF_ASC_NODE":359.8204,"ARG_OF_PERICENTER":65.0576,"MEAN_ANOMALY":295.0518,"EPHEMERIS_TYPE":0,"CLASSIFICATION_TYPE":"U","NORAD_CAT_ID":58393,"ELEMENT_SET_NO":999,"REV_AT_EPOCH":12980,"BSTAR":0.00011407549,"MEAN_MOTION_DOT":3.019e-5,"MEAN_MOTION_DDOT":0},{"OBJECT_NAME":"OBJECT B","OBJECT_ID":"2024-018B","EPOCH":"2026-03-09T23:37:58.932768","MEAN_MOTION":14.43067172,"ECCENTRICITY":0.04162119,"INCLINATION":58.6942,"RA_OF_ASC_NODE":207.6312,"ARG_OF_PERICENTER":352.1605,"MEAN_ANOMALY":7.3044,"EPHEMERIS_TYPE":0,"CLASSIFICATION_TYPE":"U","NORAD_CAT_ID":58850,"ELEMENT_SET_NO":999,"REV_AT_EPOCH":11107,"BSTAR":0.00029384903,"MEAN_MOTION_DOT":2.642e-5,"MEAN_MOTION_DDOT":0}]
